CALSPHERE 1             
1 00900U 64063C   22334.21291029  .00000514  00000+0  53726-3 0  9993
2 00900  90.1838  44.0032 0025850 239.5483 143.5421 13.73985735893424
CALSPHERE 2             
1 00902U 64063E   22333.72175564  .00000058  00000+0  74660-4 0  9999
2 00902  90.1988  47.1903 0019341  33.6234 130.4653 13.52728686681118
LCS 1                   
1 01361U 65034C   22333.52055102  .00000011  00000+0  34410-3 0  9998
2 01361  32.1462  13.3687 0011383 102.9352 257.2417  9.89301952 81572
TEMPSAT 1               
1 01512U 65065E   22333.18108971  .00000038  00000+0  59923-4 0  9991
2 01512  89.9249 217.3661 0068321 288.6053 186.6476 13.33462526787320
CALSPHERE 4A            
1 01520U 65065H   22333.81398142  .00000110  00000+0  19361-3 0  9993
2 01520  89.9801 129.9782 0069893 156.1654 313.8115 13.35918518789736
OPS 5712 (P/L 160)      
1 02826U 67053A   22334.19199112  .00002319  00000+0  59546-3 0  9992
2 02826  69.9280 260.0390 0002436 164.3326 195.7884 14.51463629877278
LES-5                   
1 02866U 67066E   22334.39199226 -.00000045  00000+0  00000+0 0  9990
2 02866   1.0147 227.5928 0056213  56.6115  98.6016  1.09424891116863
